{
  "name": "SATGUS",
  "line1": "1 62713U 25009DJ  26186.19270393  .00012737  00000+0  98964-3 0  9990",
  "line2": "2 62713  97.6866 267.3924 0006664  76.2103 283.9863 15.01430709 80262",
  "fetched_at": "2026-07-06T02:54:37.848752+00:00"
}